[{"OBJECT_NAME":"ORBCOMM FM35","OBJECT_ID":"1999-065F","EPOCH":"2026-03-28T16:54:25.254144","MEAN_MOTION":14.37919473,"ECCENTRICITY":0.0002098,"INCLINATION":45.0388,"RA_OF_ASC_NODE":189.002,"ARG_OF_PERICENTER":0.5616,"MEAN_ANOMALY":359.5235,"EPHEMERIS_TYPE":0,"CLASSIFICATION_TYPE":"U","NORAD_CAT_ID":25985,"ELEMENT_SET_NO":999,"REV_AT_EPOCH":37572,"BSTAR":0.00037647,"MEAN_MOTION_DOT":1.005e-5,"MEAN_MOTION_DDOT":0},{"OBJECT_NAME":"ORBCOMM FM34","OBJECT_ID":"1999-065G","EPOCH":"2026-03-28T12:54:02.025216","MEAN_MOTION":14.37822625,"ECCENTRICITY":0.00036598,"INCLINATION":45.0384,"RA_OF_ASC_NODE":190.3162,"ARG_OF_PERICENTER":302.6582,"MEAN_ANOMALY":57.3913,"EPHEMERIS_TYPE":0,"CLASSIFICATION_TYPE":"U","NORAD_CAT_ID":25986,"ELEMENT_SET_NO":999,"REV_AT_EPOCH":37581,"BSTAR":0.00031168841,"MEAN_MOTION_DOT":8.06e-6,"MEAN_MOTION_DDOT":0},{"OBJECT_NAME":"ORBCOMM FM38","OBJECT_ID":"2008-031A","EPOCH":"2026-03-28T20:42:29.313792","MEAN_MOTION":14.82814871,"ECCENTRICITY":0.0004513,"INCLINATION":48.4404,"RA_OF_ASC_NODE":37.0766,"ARG_OF_PERICENTER":195.2586,"MEAN_ANOMALY":164.8195,"EPHEMERIS_TYPE":0,"CLASSIFICATION_TYPE":"U","NORAD_CAT_ID":33060,"ELEMENT_SET_NO":999,"REV_AT_EPOCH":95697,"BSTAR":0.00029955,"MEAN_MOTION_DOT":2.233e-5,"MEAN_MOTION_DDOT":0},{"OBJECT_NAME":"ORBCOMM FM41","OBJECT_ID":"2008-031B","EPOCH":"2026-03-28T15:29:20.548608","MEAN_MOTION":14.82342952,"ECCENTRICITY":0.0003592,"INCLINATION":48.4435,"RA_OF_ASC_NODE":46.927,"ARG_OF_PERICENTER":178.4922,"MEAN_ANOMALY":351.4918,"EPHEMERIS_TYPE":0,"CLASSIFICATION_TYPE":"U","NORAD_CAT_ID":33061,"ELEMENT_SET_NO":999,"REV_AT_EPOCH":95641,"BSTAR":0.00028374,"MEAN_MOTION_DOT":2.078e-5,"MEAN_MOTION_DDOT":0},{"OBJECT_NAME":"ORBCOMM FM29","OBJECT_ID":"2008-031C","EPOCH":"2026-03-28T16:06:14.000832","MEAN_MOTION":14.82519424,"ECCENTRICITY":0.0005166,"INCLINATION":48.4384,"RA_OF_ASC_NODE":54.1956,"ARG_OF_PERICENTER":176.2002,"MEAN_ANOMALY":354.1708,"EPHEMERIS_TYPE":0,"CLASSIFICATION_TYPE":"U","NORAD_CAT_ID":33062,"ELEMENT_SET_NO":999,"REV_AT_EPOCH":95633,"BSTAR":0.00029557,"MEAN_MOTION_DOT":2.184e-5,"MEAN_MOTION_DDOT":0},{"OBJECT_NAME":"ORBCOMM FM39","OBJECT_ID":"2008-031D","EPOCH":"2026-03-28T16:40:13.603296","MEAN_MOTION":14.8088898,"ECCENTRICITY":0.000583,"INCLINATION":48.4402,"RA_OF_ASC_NODE":81.6598,"ARG_OF_PERICENTER":142.5536,"MEAN_ANOMALY":217.5786,"EPHEMERIS_TYPE":0,"CLASSIFICATION_TYPE":"U","NORAD_CAT_ID":33063,"ELEMENT_SET_NO":999,"REV_AT_EPOCH":95594,"BSTAR":0.00023367,"MEAN_MOTION_DOT":1.611e-5,"MEAN_MOTION_DDOT":0},{"OBJECT_NAME":"ORBCOMM FM37","OBJECT_ID":"2008-031E","EPOCH":"2026-03-28T09:14:09.832992","MEAN_MOTION":14.81078142,"ECCENTRICITY":0.00045923,"INCLINATION":48.4396,"RA_OF_ASC_NODE":71.218,"ARG_OF_PERICENTER":164.131,"MEAN_ANOMALY":349.2516,"EPHEMERIS_TYPE":0,"CLASSIFICATION_TYPE":"U","NORAD_CAT_ID":33064,"ELEMENT_SET_NO":999,"REV_AT_EPOCH":95615,"BSTAR":0.00024460985,"MEAN_MOTION_DOT":1.705e-5,"MEAN_MOTION_DDOT":0},{"OBJECT_NAME":"ORBCOMM FM40","OBJECT_ID":"2008-031F","EPOCH":"2026-03-28T15:21:26.986752","MEAN_MOTION":14.83747178,"ECCENTRICITY":0.0005709,"INCLINATION":48.4412,"RA_OF_ASC_NODE":48.8762,"ARG_OF_PERICENTER":182.0611,"MEAN_ANOMALY":348.0322,"EPHEMERIS_TYPE":0,"CLASSIFICATION_TYPE":"U","NORAD_CAT_ID":33065,"ELEMENT_SET_NO":999,"REV_AT_EPOCH":95637,"BSTAR":0.00033022,"MEAN_MOTION_DOT":2.544e-5,"MEAN_MOTION_DDOT":0},{"OBJECT_NAME":"VESSELSAT 1","OBJECT_ID":"2011-058C","EPOCH":"2026-03-28T14:14:27.385728","MEAN_MOTION":14.11424444,"ECCENTRICITY":0.0013783,"INCLINATION":19.9607,"RA_OF_ASC_NODE":172.8455,"ARG_OF_PERICENTER":75.1902,"MEAN_ANOMALY":285.0028,"EPHEMERIS_TYPE":0,"CLASSIFICATION_TYPE":"U","NORAD_CAT_ID":37840,"ELEMENT_SET_NO":999,"REV_AT_EPOCH":74653,"BSTAR":4.9559e-5,"MEAN_MOTION_DOT":3.56e-6,"MEAN_MOTION_DDOT":0},{"OBJECT_NAME":"ORBCOMM FM109","OBJECT_ID":"2014-040A","EPOCH":"2026-03-28T10:01:12.398304","MEAN_MOTION":14.58750004,"ECCENTRICITY":0.0002311,"INCLINATION":47.0022,"RA_OF_ASC_NODE":113.3323,"ARG_OF_PERICENTER":235.2139,"MEAN_ANOMALY":124.853,"EPHEMERIS_TYPE":0,"CLASSIFICATION_TYPE":"U","NORAD_CAT_ID":40086,"ELEMENT_SET_NO":999,"REV_AT_EPOCH":62255,"BSTAR":0.00014166239,"MEAN_MOTION_DOT":4.97e-6,"MEAN_MOTION_DDOT":0},{"OBJECT_NAME":"ORBCOMM FM107","OBJECT_ID":"2014-040B","EPOCH":"2026-03-28T18:33:49.243968","MEAN_MOTION":14.58835074,"ECCENTRICITY":8.59e-5,"INCLINATION":47.0037,"RA_OF_ASC_NODE":112.4909,"ARG_OF_PERICENTER":213.5099,"MEAN_ANOMALY":146.5732,"EPHEMERIS_TYPE":0,"CLASSIFICATION_TYPE":"U","NORAD_CAT_ID":40087,"ELEMENT_SET_NO":999,"REV_AT_EPOCH":62268,"BSTAR":0.00014155,"MEAN_MOTION_DOT":4.98e-6,"MEAN_MOTION_DDOT":0},{"OBJECT_NAME":"ORBCOMM FM106","OBJECT_ID":"2014-040C","EPOCH":"2026-03-28T13:31:39.213120","MEAN_MOTION":14.70347707,"ECCENTRICITY":0.0016738,"INCLINATION":47.0594,"RA_OF_ASC_NODE":272.4842,"ARG_OF_PERICENTER":307.3414,"MEAN_ANOMALY":52.5952,"EPHEMERIS_TYPE":0,"CLASSIFICATION_TYPE":"U","NORAD_CAT_ID":40088,"ELEMENT_SET_NO":999,"REV_AT_EPOCH":62531,"BSTAR":0.00018412,"MEAN_MOTION_DOT":9.35e-6,"MEAN_MOTION_DDOT":0},{"OBJECT_NAME":"ORBCOMM FM111","OBJECT_ID":"2014-040D","EPOCH":"2026-03-28T18:25:48.815040","MEAN_MOTION":14.88446281,"ECCENTRICITY":0.0027597,"INCLINATION":46.9999,"RA_OF_ASC_NODE":81.9115,"ARG_OF_PERICENTER":117.4905,"MEAN_ANOMALY":242.8802,"EPHEMERIS_TYPE":0,"CLASSIFICATION_TYPE":"U","NORAD_CAT_ID":40089,"ELEMENT_SET_NO":999,"REV_AT_EPOCH":63259,"BSTAR":0.00033795,"MEAN_MOTION_DOT":2.97e-5,"MEAN_MOTION_DDOT":0},{"OBJECT_NAME":"ORBCOMM FM104","OBJECT_ID":"2014-040E","EPOCH":"2026-03-28T04:28:24.957408","MEAN_MOTION":14.57192239,"ECCENTRICITY":0.00151726,"INCLINATION":47.004,"RA_OF_ASC_NODE":152.3317,"ARG_OF_PERICENTER":62.0362,"MEAN_ANOMALY":298.2057,"EPHEMERIS_TYPE":0,"CLASSIFICATION_TYPE":"U","NORAD_CAT_ID":40090,"ELEMENT_SET_NO":999,"REV_AT_EPOCH":62203,"BSTAR":0.00012989219,"MEAN_MOTION_DOT":4.21e-6,"MEAN_MOTION_DDOT":0},{"OBJECT_NAME":"ORBCOMM FM103","OBJECT_ID":"2014-040F","EPOCH":"2026-03-28T18:18:01.759104","MEAN_MOTION":14.58739688,"ECCENTRICITY":0.0001252,"INCLINATION":47.0041,"RA_OF_ASC_NODE":113.2785,"ARG_OF_PERICENTER":185.6557,"MEAN_ANOMALY":174.4315,"EPHEMERIS_TYPE":0,"CLASSIFICATION_TYPE":"U","NORAD_CAT_ID":40091,"ELEMENT_SET_NO":999,"REV_AT_EPOCH":60564,"BSTAR":0.00014858,"MEAN_MOTION_DOT":5.3e-6,"MEAN_MOTION_DDOT":0},{"OBJECT_NAME":"ORBCOMM FM114","OBJECT_ID":"2015-081A","EPOCH":"2026-03-28T20:18:38.341440","MEAN_MOTION":14.58759977,"ECCENTRICITY":0.000222,"INCLINATION":47.0064,"RA_OF_ASC_NODE":21.8179,"ARG_OF_PERICENTER":211.6629,"MEAN_ANOMALY":148.4124,"EPHEMERIS_TYPE":0,"CLASSIFICATION_TYPE":"U","NORAD_CAT_ID":41179,"ELEMENT_SET_NO":999,"REV_AT_EPOCH":54602,"BSTAR":0.00016797,"MEAN_MOTION_DOT":6.21e-6,"MEAN_MOTION_DDOT":0},{"OBJECT_NAME":"ORBCOMM FM119","OBJECT_ID":"2015-081B","EPOCH":"2026-03-28T20:18:41.159808","MEAN_MOTION":14.58701955,"ECCENTRICITY":0.0001464,"INCLINATION":47,"RA_OF_ASC_NODE":291.18,"ARG_OF_PERICENTER":268.6411,"MEAN_ANOMALY":91.4307,"EPHEMERIS_TYPE":0,"CLASSIFICATION_TYPE":"U","NORAD_CAT_ID":41180,"ELEMENT_SET_NO":999,"REV_AT_EPOCH":54727,"BSTAR":0.00014508,"MEAN_MOTION_DOT":5.13e-6,"MEAN_MOTION_DDOT":0}]
